*******************************************************************************
 Revised: Mar 27, 2009             Triton / (Neptune)                       801

 SATELLITE PHYSICAL PROPERTIES:
  Radius (km)             = 1352.6 +- 2.4   Density (g cm^-3)   = 2.054 +-0.032
  Mass (10^20 kg )        =  214.7 +- 0.7   Geometric Albedo    =  0.7  
                                            V(1,0)              = -1.24

 SATELLITE ORBITAL DATA:
  Semi-major axis, a (km) = 354.76(10^3)    Orbital period      = 5.876854 d (R)
  Eccentricity, e         =                 Rotational period   = Synchronous
  Inclination, i  (deg)   = 156.834

 Fit to all reported measurements through 2008, as described in AJ (2009).
*******************************************************************************
 

 

*******************************************************************************
Ephemeris / WWW_USER Thu Dec 26 15:59:55 2019 Pasadena, USA      / Horizons    
*******************************************************************************
Target body name: Triton (801)                    {source: nep081xl}
Center body name: Sun (10)                        {source: DE431mx}
Center-site name: BODY CENTER
*******************************************************************************
Start time      : A.D. 2019-Dec-26 00:00:00.0000 TDB
Stop  time      : A.D. 2020-Jan-25 00:00:00.0000 TDB
Step-size       : 1440 minutes
*******************************************************************************
Center geodetic : 0.00000000,0.00000000,0.0000000 {E-lon(deg),Lat(deg),Alt(km)}
Center cylindric: 0.00000000,0.00000000,0.0000000 {E-lon(deg),Dxy(km),Dz(km)}
Center radii    : 696000.0 x 696000.0 x 696000.0 k{Equator, meridian, pole}    
Keplerian GM    : 1.3271244146953745E+11 km^3/s^2
Output units    : KM-S, deg                                                    
Output type     : GEOMETRIC osculating elements
Output format   : 10
Reference frame : ICRF/J2000.0                                                 
Coordinate systm: Ecliptic and Mean Equinox of Reference Epoch                 
*******************************************************************************
            JDTDB,            Calendar Date (TDB),                     EC,                     QR,                     IN,                     OM,                      W,                     Tp,                      N,                     MA,                     TA,                      A,                     AD,                     PR,
**************************************************************************************************************************************************************************************************************************************************************************************************************************************************
$$SOE
2458864.500000000, A.D. 2020-Jan-16 00:00:00.0000,  8.690473386044467E-01,  3.344900932803279E+08,  3.807743716384793E+01,  1.664727959136061E+02,  3.536011829371996E+02,  7.745378540146199E+08,  1.616869825292157E-07,  2.347673115297219E+02,  1.880930414803828E+02,  2.554282514885084E+09,  4.774074936489840E+09,  2.226524327244159E+09,
2458865.500000000, A.D. 2020-Jan-17 00:00:00.0000,  6.189180012651055E-01,  1.907465766957145E+09,  2.768349074249362E+01,  3.498003885712587E+02,  1.178500009368070E+02,  7.677433374563196E+08,  5.894147159297789E-08,  3.147480778846203E+02,  2.399018633578512E+02,  5.005394569382698E+09,  8.103323371808250E+09,  6.107753849208090E+09,
2458866.500000000, A.D. 2020-Jan-18 00:00:00.0000,  1.522691687423914E+00,  4.347849430915174E+09,  2.158429259278701E+01,  3.504486906093470E+02,  1.499528503548984E+01,  1.572235386693247E+08,  2.751281945777649E-08, -4.325662833921872E+00,  3.421738422230970E+02, -8.318191269395459E+09,  9.999999000000000E+99,  9.999999000000000E+99,
2458867.500000000, A.D. 2020-Jan-19 00:00:00.0000,  2.025388227355661E+00,  4.340785326195526E+09,  4.850934224207241E+00,  1.604454694352383E-01,  3.302439032564278E+02, -1.397753866404994E+08,  7.578067681682745E-08,  1.059227340195079E+01,  1.737860436507232E+01, -4.233309111993457E+09,  9.999999000000000E+99,  9.999999000000000E+99,
2458868.500000000, A.D. 2020-Jan-20 00:00:00.0000,  1.102073425296464E+00,  3.673871231623710E+09,  2.076891105959317E+01,  1.650922481967302E+02,  1.340447652822399E+02, -4.125870849150695E+08,  3.056761743987662E-09,  1.261180417231773E+00,  4.888834663128493E+01, -3.599243604251807E+10,  9.999999000000000E+99,  9.999999000000000E+99,
2458869.500000000, A.D. 2020-Jan-21 00:00:00.0000,  4.074726730301298E-01,  2.052849910861893E+09,  4.995850017296323E+01,  1.669634046923257E+02,  3.082235062228595E+01, -1.168826001593777E+09,  1.023540970531864E-07,  1.196341300054173E+02,  1.505404189268740E+02,  3.464565797091549E+09,  4.876281683321204E+09,  3.517201659381869E+09,
2458870.500000000, A.D. 2020-Jan-22 00:00:00.0000,  8.905332900942241E-01,  2.847216471571584E+08,  2.607629683146511E+01,  1.657046114335674E+02,  3.534739855379790E+02,  7.260163461526401E+08,  1.573514750836551E-07,  2.457602569980366E+02,  1.889057386195101E+02,  2.600988441163837E+09,  4.917255235170517E+09,  2.287871783906747E+09,
2458871.500000000, A.D. 2020-Jan-23 00:00:00.0000,  6.091715442295041E-01,  2.439238789495050E+09,  2.821255171615149E+01,  3.497936337779943E+02,  9.947857594041537E+01,  7.428026807923739E+08,  4.233272645823646E-08,  3.285551373015717E+02,  2.583108708377835E+02,  6.241200591922693E+09,  1.004316239435034E+10,  8.504058918934966E+09,
2458872.500000000, A.D. 2020-Jan-24 00:00:00.0000,  1.667348978775475E+00,  4.412623808426550E+09,  1.991953650112064E+01,  3.507282198169557E+02,  9.309365934310208E+00,  1.073873046599948E+08,  3.882063154083650E-08, -4.168842986369214E+00,  3.476324263759191E+02, -6.612168368824531E+09,  9.999999000000000E+99,  9.999999000000000E+99,
2458873.500000000, A.D. 2020-Jan-25 00:00:00.0000,  1.969227397715835E+00,  4.279183770786785E+09,  2.355779106763158E+00,  1.403208279624464E+01,  3.127467042814387E+02, -1.690135875543428E+08,  7.115010876018076E-08,  1.202533513643982E+01,  2.106473929078906E+01, -4.415046232567780E+09,  9.999999000000000E+99,  9.999999000000000E+99,
